STARLINK-31412          
1 59410U 24064N   25231.10590469  .00001325  00000+0  57669-4 0  9999
2 59410  42.9991 120.2170 0001308 274.8718  85.1984 15.27582170 78241
STARLINK-31483          
1 59411U 24064P   25231.05208246 -.00005079  00000+0 -17514-3 0  9999
2 59411  43.0036 120.6706 0001178 286.8399  73.2323 15.27584022 78238
STARLINK-31568          
1 59412U 24064Q   25230.40079206  .00001290  00000+0  56410-4 0  9998
2 59412  43.0015 124.3842 0001268 287.2216  72.8497 15.27572934 78136
STARLINK-31615          
1 59413U 24064R   25230.39404656 -.00000637  00000+0 -13619-4 0  9998
2 59413  43.0032 117.3932 0001047 267.4243  92.6489 15.27574539 78216
STARLINK-31457          
1 59414U 24064S   25231.05048307 -.00001287  00000+0 -37258-4 0  9997
2 59414  43.0015 113.7190 0001000 269.8998  90.1739 15.27570566 78314
STARLINK-31398          
1 59415U 24064T   25231.10205492 -.00000872  00000+0 -22161-4 0  9990
2 59415  43.0028 120.1877 0001205 278.1106  81.9609 15.27577673 78246
STARLINK-31399          
1 59416U 24064U   25231.09562060 -.00000942  00000+0 -24715-4 0  9991
2 59416  43.0025 120.1374 0001182 276.7572  83.3145 15.27591854 78249
STARLINK-31401          
1 59417U 24064V   25229.99788294  .00001085  00000+0  48987-4 0  9991
2 59417  43.0033 119.5980 0001697 297.9209  62.1471 15.27557012 77904
STARLINK-31414          
1 59418U 24064W   25230.39436560  .00001445  00000+0  62017-4 0  9994
2 59418  43.0001 124.3377 0001253 274.5044  85.5664 15.27578915 78134
STARLINK-31415          
1 59419U 24064X   25230.42010678 -.00004368  00000+0 -14952-3 0  9990
2 59419  43.0010 124.5404 0000437 315.7505  44.3312 15.27534292 78134
STARLINK-31466          
1 59420U 24064Y   25231.07008197 -.00003184  00000+0 -10627-3 0  9997
2 59420  43.0017 120.8172 0000585 308.4685  51.6114 15.27573995 78231
STARLINK-11087 [DTC]    
1 59421U 24065A   25231.55483869  .00000317  00000+0  74723-5 0  9997
2 59421  53.1599  10.4744 0001154  66.6354 293.4786 15.69708484 79766
STARLINK-11090 [DTC]    
1 59422U 24065B   25231.54011975 -.00000936  00000+0 -28676-5 0  9997
2 59422  53.1589  10.3706 0001345 136.5533 223.5591 15.69713535 79773
STARLINK-11093 [DTC]    
1 59423U 24065C   25231.54502713 -.00000788  00000+0 -16479-5 0  9996
2 59423  53.1582  10.4074 0000984 114.0439 246.0682 15.69711066 79767
STARLINK-11083 [DTC]    
1 59424U 24065D   25231.54993115  .00000234  00000+0  67878-5 0  9990
2 59424  53.1586  10.4405 0000772  67.1996 292.9104 15.69714772 79712
STARLINK-11085 [DTC]    
1 59425U 24065E   25230.64385528  .00000995  00000+0  13083-4 0  9996
2 59425  53.1593  14.7411 0001464  76.6979 283.4202 15.69695136 79581
