[{"OBJECT_NAME":"STARLINK-31412","OBJECT_ID":"2024-064N","EPOCH":"2025-08-19T02:32:30.165216","MEAN_MOTION":15.2758217,"ECCENTRICITY":0.0001308,"INCLINATION":42.9991,"RA_OF_ASC_NODE":120.217,"ARG_OF_PERICENTER":274.8718,"MEAN_ANOMALY":85.1984,"EPHEMERIS_TYPE":0,"CLASSIFICATION_TYPE":"U","NORAD_CAT_ID":59410,"ELEMENT_SET_NO":999,"REV_AT_EPOCH":7824,"BSTAR":5.7669e-5,"MEAN_MOTION_DOT":1.325e-5,"MEAN_MOTION_DDOT":0},{"OBJECT_NAME":"STARLINK-31483","OBJECT_ID":"2024-064P","EPOCH":"2025-08-19T01:14:59.924544","MEAN_MOTION":15.27584022,"ECCENTRICITY":0.0001178,"INCLINATION":43.0036,"RA_OF_ASC_NODE":120.6706,"ARG_OF_PERICENTER":286.8399,"MEAN_ANOMALY":73.2323,"EPHEMERIS_TYPE":0,"CLASSIFICATION_TYPE":"U","NORAD_CAT_ID":59411,"ELEMENT_SET_NO":999,"REV_AT_EPOCH":7823,"BSTAR":-0.00017514,"MEAN_MOTION_DOT":-5.079e-5,"MEAN_MOTION_DDOT":0},{"OBJECT_NAME":"STARLINK-31568","OBJECT_ID":"2024-064Q","EPOCH":"2025-08-18T09:37:08.433984","MEAN_MOTION":15.27572934,"ECCENTRICITY":0.0001268,"INCLINATION":43.0015,"RA_OF_ASC_NODE":124.3842,"ARG_OF_PERICENTER":287.2216,"MEAN_ANOMALY":72.8497,"EPHEMERIS_TYPE":0,"CLASSIFICATION_TYPE":"U","NORAD_CAT_ID":59412,"ELEMENT_SET_NO":999,"REV_AT_EPOCH":7813,"BSTAR":5.641e-5,"MEAN_MOTION_DOT":1.29e-5,"MEAN_MOTION_DDOT":0},{"OBJECT_NAME":"STARLINK-31615","OBJECT_ID":"2024-064R","EPOCH":"2025-08-18T09:27:25.622784","MEAN_MOTION":15.27574539,"ECCENTRICITY":0.0001047,"INCLINATION":43.0032,"RA_OF_ASC_NODE":117.3932,"ARG_OF_PERICENTER":267.4243,"MEAN_ANOMALY":92.6489,"EPHEMERIS_TYPE":0,"CLASSIFICATION_TYPE":"U","NORAD_CAT_ID":59413,"ELEMENT_SET_NO":999,"REV_AT_EPOCH":7821,"BSTAR":-1.3619e-5,"MEAN_MOTION_DOT":-6.37e-6,"MEAN_MOTION_DDOT":0},{"OBJECT_NAME":"STARLINK-31457","OBJECT_ID":"2024-064S","EPOCH":"2025-08-19T01:12:41.737248","MEAN_MOTION":15.27570566,"ECCENTRICITY":0.0001,"INCLINATION":43.0015,"RA_OF_ASC_NODE":113.719,"ARG_OF_PERICENTER":269.8998,"MEAN_ANOMALY":90.1739,"EPHEMERIS_TYPE":0,"CLASSIFICATION_TYPE":"U","NORAD_CAT_ID":59414,"ELEMENT_SET_NO":999,"REV_AT_EPOCH":7831,"BSTAR":-3.7258e-5,"MEAN_MOTION_DOT":-1.287e-5,"MEAN_MOTION_DDOT":0},{"OBJECT_NAME":"STARLINK-31398","OBJECT_ID":"2024-064T","EPOCH":"2025-08-19T02:26:57.545088","MEAN_MOTION":15.27577673,"ECCENTRICITY":0.0001205,"INCLINATION":43.0028,"RA_OF_ASC_NODE":120.1877,"ARG_OF_PERICENTER":278.1106,"MEAN_ANOMALY":81.9609,"EPHEMERIS_TYPE":0,"CLASSIFICATION_TYPE":"U","NORAD_CAT_ID":59415,"ELEMENT_SET_NO":999,"REV_AT_EPOCH":7824,"BSTAR":-2.2161e-5,"MEAN_MOTION_DOT":-8.72e-6,"MEAN_MOTION_DDOT":0},{"OBJECT_NAME":"STARLINK-31399","OBJECT_ID":"2024-064U","EPOCH":"2025-08-19T02:17:41.619840","MEAN_MOTION":15.27591854,"ECCENTRICITY":0.0001182,"INCLINATION":43.0025,"RA_OF_ASC_NODE":120.1374,"ARG_OF_PERICENTER":276.7572,"MEAN_ANOMALY":83.3145,"EPHEMERIS_TYPE":0,"CLASSIFICATION_TYPE":"U","NORAD_CAT_ID":59416,"ELEMENT_SET_NO":999,"REV_AT_EPOCH":7824,"BSTAR":-2.4715e-5,"MEAN_MOTION_DOT":-9.42e-6,"MEAN_MOTION_DDOT":0},{"OBJECT_NAME":"STARLINK-31401","OBJECT_ID":"2024-064V","EPOCH":"2025-08-17T23:56:57.086016","MEAN_MOTION":15.27557012,"ECCENTRICITY":0.0001697,"INCLINATION":43.0033,"RA_OF_ASC_NODE":119.598,"ARG_OF_PERICENTER":297.9209,"MEAN_ANOMALY":62.1471,"EPHEMERIS_TYPE":0,"CLASSIFICATION_TYPE":"U","NORAD_CAT_ID":59417,"ELEMENT_SET_NO":999,"REV_AT_EPOCH":7790,"BSTAR":4.8987e-5,"MEAN_MOTION_DOT":1.085e-5,"MEAN_MOTION_DDOT":0},{"OBJECT_NAME":"STARLINK-31414","OBJECT_ID":"2024-064W","EPOCH":"2025-08-18T09:27:53.187840","MEAN_MOTION":15.27578915,"ECCENTRICITY":0.0001253,"INCLINATION":43.0001,"RA_OF_ASC_NODE":124.3377,"ARG_OF_PERICENTER":274.5044,"MEAN_ANOMALY":85.5664,"EPHEMERIS_TYPE":0,"CLASSIFICATION_TYPE":"U","NORAD_CAT_ID":59418,"ELEMENT_SET_NO":999,"REV_AT_EPOCH":7813,"BSTAR":6.2017e-5,"MEAN_MOTION_DOT":1.445e-5,"MEAN_MOTION_DDOT":0},{"OBJECT_NAME":"STARLINK-31415","OBJECT_ID":"2024-064X","EPOCH":"2025-08-18T10:04:57.225792","MEAN_MOTION":15.27534292,"ECCENTRICITY":4.37e-5,"INCLINATION":43.001,"RA_OF_ASC_NODE":124.5404,"ARG_OF_PERICENTER":315.7505,"MEAN_ANOMALY":44.3312,"EPHEMERIS_TYPE":0,"CLASSIFICATION_TYPE":"U","NORAD_CAT_ID":59419,"ELEMENT_SET_NO":999,"REV_AT_EPOCH":7813,"BSTAR":-0.00014952,"MEAN_MOTION_DOT":-4.368e-5,"MEAN_MOTION_DDOT":0},{"OBJECT_NAME":"STARLINK-31466","OBJECT_ID":"2024-064Y","EPOCH":"2025-08-19T01:40:55.082208","MEAN_MOTION":15.27573995,"ECCENTRICITY":5.85e-5,"INCLINATION":43.0017,"RA_OF_ASC_NODE":120.8172,"ARG_OF_PERICENTER":308.4685,"MEAN_ANOMALY":51.6114,"EPHEMERIS_TYPE":0,"CLASSIFICATION_TYPE":"U","NORAD_CAT_ID":59420,"ELEMENT_SET_NO":999,"REV_AT_EPOCH":7823,"BSTAR":-0.00010627,"MEAN_MOTION_DOT":-3.184e-5,"MEAN_MOTION_DDOT":0},{"OBJECT_NAME":"STARLINK-11087 [DTC]","OBJECT_ID":"2024-065A","EPOCH":"2025-08-19T13:18:58.062816","MEAN_MOTION":15.69708484,"ECCENTRICITY":0.0001154,"INCLINATION":53.1599,"RA_OF_ASC_NODE":10.4744,"ARG_OF_PERICENTER":66.6354,"MEAN_ANOMALY":293.4786,"EPHEMERIS_TYPE":0,"CLASSIFICATION_TYPE":"U","NORAD_CAT_ID":59421,"ELEMENT_SET_NO":999,"REV_AT_EPOCH":7976,"BSTAR":7.4723e-6,"MEAN_MOTION_DOT":3.17e-6,"MEAN_MOTION_DDOT":0},{"OBJECT_NAME":"STARLINK-11090 [DTC]","OBJECT_ID":"2024-065B","EPOCH":"2025-08-19T12:57:46.346400","MEAN_MOTION":15.69713535,"ECCENTRICITY":0.0001345,"INCLINATION":53.1589,"RA_OF_ASC_NODE":10.3706,"ARG_OF_PERICENTER":136.5533,"MEAN_ANOMALY":223.5591,"EPHEMERIS_TYPE":0,"CLASSIFICATION_TYPE":"U","NORAD_CAT_ID":59422,"ELEMENT_SET_NO":999,"REV_AT_EPOCH":7977,"BSTAR":-2.8676e-6,"MEAN_MOTION_DOT":-9.36e-6,"MEAN_MOTION_DDOT":0},{"OBJECT_NAME":"STARLINK-11093 [DTC]","OBJECT_ID":"2024-065C","EPOCH":"2025-08-19T13:04:50.344032","MEAN_MOTION":15.69711066,"ECCENTRICITY":9.84e-5,"INCLINATION":53.1582,"RA_OF_ASC_NODE":10.4074,"ARG_OF_PERICENTER":114.0439,"MEAN_ANOMALY":246.0682,"EPHEMERIS_TYPE":0,"CLASSIFICATION_TYPE":"U","NORAD_CAT_ID":59423,"ELEMENT_SET_NO":999,"REV_AT_EPOCH":7976,"BSTAR":-1.6479e-6,"MEAN_MOTION_DOT":-7.88e-6,"MEAN_MOTION_DDOT":0},{"OBJECT_NAME":"STARLINK-11083 [DTC]","OBJECT_ID":"2024-065D","EPOCH":"2025-08-19T13:11:54.051360","MEAN_MOTION":15.69714772,"ECCENTRICITY":7.72e-5,"INCLINATION":53.1586,"RA_OF_ASC_NODE":10.4405,"ARG_OF_PERICENTER":67.1996,"MEAN_ANOMALY":292.9104,"EPHEMERIS_TYPE":0,"CLASSIFICATION_TYPE":"U","NORAD_CAT_ID":59424,"ELEMENT_SET_NO":999,"REV_AT_EPOCH":7971,"BSTAR":6.7878e-6,"MEAN_MOTION_DOT":2.34e-6,"MEAN_MOTION_DDOT":0},{"OBJECT_NAME":"STARLINK-11085 [DTC]","OBJECT_ID":"2024-065E","EPOCH":"2025-08-18T15:27:09.096192","MEAN_MOTION":15.69695136,"ECCENTRICITY":0.0001464,"INCLINATION":53.1593,"RA_OF_ASC_NODE":14.7411,"ARG_OF_PERICENTER":76.6979,"MEAN_ANOMALY":283.4202,"EPHEMERIS_TYPE":0,"CLASSIFICATION_TYPE":"U","NORAD_CAT_ID":59425,"ELEMENT_SET_NO":999,"REV_AT_EPOCH":7958,"BSTAR":1.3083e-5,"MEAN_MOTION_DOT":9.95e-6,"MEAN_MOTION_DDOT":0}]
